{"type": "FeatureCollection", "features": [ {"type": "Feature", "properties": {"norad_id": 31535, "name": "FENGYUN 1C DEB", "group": "fengyun-1c-debris", "lat": 77.81212530091241, "lon": 63.54191375453525, "alt_km": 744.5976010177392, "timestamp": "2025-12-19T06:59:44.191633+00:00", "meta": {"OBJECT_NAME": "FENGYUN 1C DEB", "OBJECT_ID": "1999-025BYA", "EPOCH": "2025-12-08T20:01:31.264032", "MEAN_MOTION": 14.28309987, "ECCENTRICITY": 0.00876599, "INCLINATION": 98.0348, "RA_OF_ASC_NODE": 193.0693, "ARG_OF_PERICENTER": 174.5726, "MEAN_ANOMALY": 185.6428, "EPHEMERIS_TYPE": 0, "CLASSIFICATION_TYPE": "U", "NORAD_CAT_ID": 31535, "ELEMENT_SET_NO": 999, "REV_AT_EPOCH": 71875, "BSTAR": 0.0012494375, "MEAN_MOTION_DOT": 3.212e-05, "MEAN_MOTION_DDOT": 0}, "tle": {"line1": "1 31535U 99025BYA 25342.83438963  .00003212  00000+0  12494-2 0  9991", "line2": "2 31535  98.0348 193.0693 0087659 174.5726 185.6428 14.28309987718752"}}, "geometry": {"type": "Point", "coordinates": [63.54191375453525, 77.81212530091241]}}, {"type": "Feature", "properties": {"norad_id": 31536, "name": "FENGYUN 1C DEB", "group": "fengyun-1c-debris", "lat": -23.08478330877618, "lon": 77.03596777424377, "alt_km": 670.0301364235638, "timestamp": "2025-12-19T06:59:44.191643+00:00", "meta": {"OBJECT_NAME": "FENGYUN 1C DEB", "OBJECT_ID": "1999-025BYB", "EPOCH": "2025-12-18T05:19:27.902208", "MEAN_MOTION": 14.54390079, "ECCENTRICITY": 0.02945362, "INCLINATION": 98.2372, "RA_OF_ASC_NODE": 259.521, "ARG_OF_PERICENTER": 127.8062, "MEAN_ANOMALY": 235.0196, "EPHEMERIS_TYPE": 0, "CLASSIFICATION_TYPE": "U", "NORAD_CAT_ID": 31536, "ELEMENT_SET_NO": 999, "REV_AT_EPOCH": 96337, "BSTAR": 0.00072957343, "MEAN_MOTION_DOT": 5.508e-05, "MEAN_MOTION_DDOT": 0}, "tle": {"line1": "1 31536U 99025BYB 25352.22185072  .00005508  00000+0  72957-3 0  9997", "line2": "2 31536  98.2372 259.5210 0294536 127.8062 235.0196 14.54390079963376"}}, "geometry": {"type": "Point", "coordinates": [77.03596777424377, -23.08478330877618]}}, {"type": "Feature", "properties": {"norad_id": 31537, "name": "FENGYUN 1C DEB", "group": "fengyun-1c-debris", "lat": 48.99556084888462, "lon": -22.355119688910257, "alt_km": 1069.848279373944, "timestamp": "2025-12-19T06:59:44.191653+00:00", "meta": {"OBJECT_NAME": "FENGYUN 1C DEB", "OBJECT_ID": "1999-025BYC", "EPOCH": "2025-12-17T05:20:33.052992", "MEAN_MOTION": 14.20381153, "ECCENTRICITY": 0.03486583, "INCLINATION": 99.2923, "RA_OF_ASC_NODE": 144.613, "ARG_OF_PERICENTER": 311.6715, "MEAN_ANOMALY": 45.5094, "EPHEMERIS_TYPE": 0, "CLASSIFICATION_TYPE": "U", "NORAD_CAT_ID": 31537, "ELEMENT_SET_NO": 999, "REV_AT_EPOCH": 93345, "BSTAR": 0.0015959458, "MEAN_MOTION_DOT": 6.271e-05, "MEAN_MOTION_DDOT": 0}, "tle": {"line1": "1 31537U 99025BYC 25351.22260478  .00006271  00000+0  15959-2 0  9997", "line2": "2 31537  99.2923 144.6130 0348658 311.6715  45.5094 14.20381153933451"}}, "geometry": {"type": "Point", "coordinates": [-22.355119688910257, 48.99556084888462]}}, {"type": "Feature", "properties": {"norad_id": 31540, "name": "FENGYUN 1C DEB", "group": "fengyun-1c-debris", "lat": 76.9136206391992, "lon": 16.713597572024366, "alt_km": 792.8986433635346, "timestamp": "2025-12-19T06:59:44.191663+00:00", "meta": {"OBJECT_NAME": "FENGYUN 1C DEB", "OBJECT_ID": "1999-025BYF", "EPOCH": "2025-12-17T16:50:42.753408", "MEAN_MOTION": 14.65440334, "ECCENTRICITY": 0.0176642, "INCLINATION": 99.0563, "RA_OF_ASC_NODE": 151.6373, "ARG_OF_PERICENTER": 285.8233, "MEAN_ANOMALY": 72.3556, "EPHEMERIS_TYPE": 0, "CLASSIFICATION_TYPE": "U", "NORAD_CAT_ID": 31540, "ELEMENT_SET_NO": 999, "REV_AT_EPOCH": 98374, "BSTAR": 0.00065590191, "MEAN_MOTION_DOT": 4.401e-05, "MEAN_MOTION_DDOT": 0}, "tle": {"line1": "1 31540U 99025BYF 25351.70188372  .00004401  00000+0  65590-3 0  9996", "line2": "2 31540  99.0563 151.6373 0176642 285.8233  72.3556 14.65440334983743"}}, "geometry": {"type": "Point", "coordinates": [16.713597572024366, 76.9136206391992]}}, {"type": "Feature", "properties": {"norad_id": 31541, "name": "FENGYUN 1C DEB", "group": "fengyun-1c-debris", "lat": 74.16118097084761, "lon": -9.78921250262235, "alt_km": 682.0676229492701, "timestamp": "2025-12-19T06:59:44.191673+00:00", "meta": {"OBJECT_NAME": "FENGYUN 1C DEB", "OBJECT_ID": "1999-025BYG", "EPOCH": "2025-12-18T20:42:46.464192", "MEAN_MOTION": 14.68921842, "ECCENTRICITY": 0.0078479, "INCLINATION": 98.9795, "RA_OF_ASC_NODE": 135.8675, "ARG_OF_PERICENTER": 221.3246, "MEAN_ANOMALY": 138.2002, "EPHEMERIS_TYPE": 0, "CLASSIFICATION_TYPE": "U", "NORAD_CAT_ID": 31541, "ELEMENT_SET_NO": 999, "REV_AT_EPOCH": 98513, "BSTAR": 0.0010467495, "MEAN_MOTION_DOT": 6.361e-05, "MEAN_MOTION_DDOT": 0}, "tle": {"line1": "1 31541U 99025BYG 25352.86303778  .00006361  00000+0  10467-2 0  9993", "line2": "2 31541  98.9795 135.8675 0078479 221.3246 138.2002 14.68921842985130"}}, "geometry": {"type": "Point", "coordinates": [-9.78921250262235, 74.16118097084761]}}, {"type": "Feature", "properties": {"norad_id": 31542, "name": "FENGYUN 1C DEB", "group": "fengyun-1c-debris", "lat": -26.92508698975373, "lon": 51.716757229615204, "alt_km": 849.3743972092034, "timestamp": "2025-12-19T06:59:44.191683+00:00", "meta": {"OBJECT_NAME": "FENGYUN 1C DEB", "OBJECT_ID": "1999-025BYH", "EPOCH": "2025-12-18T22:41:09.230208", "MEAN_MOTION": 14.22828714, "ECCENTRICITY": 0.00477715, "INCLINATION": 98.7313, "RA_OF_ASC_NODE": 46.8971, "ARG_OF_PERICENTER": 189.4267, "MEAN_ANOMALY": 170.6019, "EPHEMERIS_TYPE": 0, "CLASSIFICATION_TYPE": "U", "NORAD_CAT_ID": 31542, "ELEMENT_SET_NO": 999, "REV_AT_EPOCH": 96028, "BSTAR": 0.0010244402, "MEAN_MOTION_DOT": 2.283e-05, "MEAN_MOTION_DDOT": 0}, "tle": {"line1": "1 31542U 99025BYH 25352.94524572  .00002283  00000+0  10244-2 0  9992", "line2": "2 31542  98.7313  46.8971 0047771 189.4267 170.6019 14.22828714960284"}}, "geometry": {"type": "Point", "coordinates": [51.716757229615204, -26.92508698975373]}}, {"type": "Feature", "properties": {"norad_id": 31544, "name": "FENGYUN 1C DEB", "group": "fengyun-1c-debris", "lat": -42.7876006557665, "lon": -143.79212865564745, "alt_km": 830.3987586730582, "timestamp": "2025-12-19T06:59:44.191694+00:00", "meta": {"OBJECT_NAME": "FENGYUN 1C DEB", "OBJECT_ID": "1999-025BYK", "EPOCH": "2025-12-18T14:39:35.559936", "MEAN_MOTION": 14.14350031, "ECCENTRICITY": 0.00320412, "INCLINATION": 98.8287, "RA_OF_ASC_NODE": 43.8064, "ARG_OF_PERICENTER": 251.9221, "MEAN_ANOMALY": 107.8461, "EPHEMERIS_TYPE": 0, "CLASSIFICATION_TYPE": "U", "NORAD_CAT_ID": 31544, "ELEMENT_SET_NO": 999, "REV_AT_EPOCH": 95840, "BSTAR": 0.00058263729, "MEAN_MOTION_DOT": 1.075e-05, "MEAN_MOTION_DDOT": 0}, "tle": {"line1": "1 31544U 99025BYK 25352.61082824  .00001075  00000+0  58264-3 0  9990", "line2": "2 31544  98.8287  43.8064 0032041 251.9221 107.8461 14.14350031958403"}}, "geometry": {"type": "Point", "coordinates": [-143.79212865564745, -42.7876006557665]}}, {"type": "Feature", "properties": {"norad_id": 31546, "name": "FENGYUN 1C DEB", "group": "fengyun-1c-debris", "lat": -1.6246144113138368, "lon": 62.52644580120539, "alt_km": 902.7154315703683, "timestamp": "2025-12-19T06:59:44.191704+00:00", "meta": {"OBJECT_NAME": "FENGYUN 1C DEB", "OBJECT_ID": "1999-025BYM", "EPOCH": "2025-12-18T03:48:53.349984", "MEAN_MOTION": 14.13165118, "ECCENTRICITY": 0.01460425, "INCLINATION": 98.2442, "RA_OF_ASC_NODE": 61.2469, "ARG_OF_PERICENTER": 121.3915, "MEAN_ANOMALY": 240.1639, "EPHEMERIS_TYPE": 0, "CLASSIFICATION_TYPE": "U", "NORAD_CAT_ID": 31546, "ELEMENT_SET_NO": 999, "REV_AT_EPOCH": 94865, "BSTAR": 0.0011596189, "MEAN_MOTION_DOT": 2.363e-05, "MEAN_MOTION_DDOT": 0}, "tle": {"line1": "1 31546U 99025BYM 25352.15895081  .00002363  00000+0  11596-2 0  9995", "line2": "2 31546  98.2442  61.2469 0146042 121.3915 240.1639 14.13165118948655"}}, "geometry": {"type": "Point", "coordinates": [62.52644580120539, -1.6246144113138368]}}, {"type": "Feature", "properties": {"norad_id": 31547, "name": "FENGYUN 1C DEB", "group": "fengyun-1c-debris", "lat": 6.9389821192932954, "lon": 36.1544256771356, "alt_km": 842.7533673405014, "timestamp": "2025-12-19T06:59:44.191714+00:00", "meta": {"OBJECT_NAME": "FENGYUN 1C DEB", "OBJECT_ID": "1999-025BYN", "EPOCH": "2025-12-09T09:02:48.494688", "MEAN_MOTION": 14.23103077, "ECCENTRICITY": 0.00537834, "INCLINATION": 99.0872, "RA_OF_ASC_NODE": 27.0415, "ARG_OF_PERICENTER": 262.539, "MEAN_ANOMALY": 96.9674, "EPHEMERIS_TYPE": 0, "CLASSIFICATION_TYPE": "U", "NORAD_CAT_ID": 31547, "ELEMENT_SET_NO": 999, "REV_AT_EPOCH": 63969, "BSTAR": 0.0021137662, "MEAN_MOTION_DOT": 4.797e-05, "MEAN_MOTION_DDOT": 0}, "tle": {"line1": "1 31547U 99025BYN 25343.37695017  .00004797  00000+0  21138-2 0  9993", "line2": "2 31547  99.0872  27.0415 0053783 262.5390  96.9674 14.23103077639691"}}, "geometry": {"type": "Point", "coordinates": [36.1544256771356, 6.9389821192932954]}}, {"type": "Feature", "properties": {"norad_id": 31550, "name": "FENGYUN 1C DEB", "group": "fengyun-1c-debris", "lat": -43.28296061256973, "lon": 164.65299101247194, "alt_km": 645.3457111084454, "timestamp": "2025-12-19T06:59:44.191724+00:00", "meta": {"OBJECT_NAME": "FENGYUN 1C DEB", "OBJECT_ID": "1999-025BYR", "EPOCH": "2025-12-18T06:36:07.648992", "MEAN_MOTION": 14.402402, "ECCENTRICITY": 0.01900394, "INCLINATION": 98.3109, "RA_OF_ASC_NODE": 351.5783, "ARG_OF_PERICENTER": 256.0402, "MEAN_ANOMALY": 101.959, "EPHEMERIS_TYPE": 0, "CLASSIFICATION_TYPE": "U", "NORAD_CAT_ID": 31550, "ELEMENT_SET_NO": 999, "REV_AT_EPOCH": 65534, "BSTAR": 0.00057475877, "MEAN_MOTION_DOT": 2.2e-05, "MEAN_MOTION_DDOT": 0}, "tle": {"line1": "1 31550U 99025BYR 25352.27508853  .00002200  00000+0  57476-3 0  9999", "line2": "2 31550  98.3109 351.5783 0190039 256.0402 101.9590 14.40240200655344"}}, "geometry": {"type": "Point", "coordinates": [164.65299101247194, -43.28296061256973]}}]}